NORAD_CAT_ID,OBJECT_NAME,OBJECT_TYPE,EPOCH,MEAN_MOTION,ECCENTRICITY,INCLINATION,RA_OF_ASC_NODE,ARG_OF_PERICENTER,MEAN_ANOMALY,BSTAR,MEAN_MOTION_DOT,MEAN_MOTION_DDOT,TLE_LINE0,TLE_LINE1,TLE_LINE2,SEMIMAJOR_AXIS,PERIOD,APOGEE,PERIGEE,DECAYED
53700.0,STARLINK-4725,PAYLOAD,2022-11-29 22:00:00,15.256238,0.0001243,53.2171,212.176,83.9984,226.3476,-0.049838,-0.01182138,0.0,0 STARLINK-4725,1 53700U 22107A   22333.91667824 -.01182138  00000-0 -49838-1 0  9992,2 53700  53.2171 212.1760 0001243  83.9984 226.3476 15.25623800  1302,6867.05,94.388,489.768,488.061,0.0
53700.0,STARLINK-4725,PAYLOAD,2022-11-30 14:00:01,15.23970598,0.0001143,53.2172,209.1073,85.9323,285.9879,-0.050694,-0.01146864,0.0,0 STARLINK-4725,1 53700U 22107A   22334.58335648 -.01146864  00000-0 -50694-1 0  9990,2 53700  53.2172 209.1073 0001143  85.9323 285.9879 15.23970598 13683,6872.015,94.49,494.666,493.095,0.0
53700.0,STARLINK-4725,PAYLOAD,2022-11-30 22:00:00,15.23160087,0.0001212,53.2174,207.5784,77.5898,323.5462,-0.0521679999999999,-0.01151567,0.0,0 STARLINK-4725,1 53700U 22107A   22334.91667824 -.01151567  00000-0 -52168-1 0  9995,2 53700  53.2174 207.5784 0001212  77.5898 323.5462 15.23160087  1304,6874.453,94.54,497.151,495.485,0.0
53700.0,STARLINK-4725,PAYLOAD,2022-12-01 14:00:01,15.21530859,0.0001419,53.2174,204.5209,59.4936,37.274,-0.054616,-0.01148918,0.0,0 STARLINK-4725,1 53700U 22107A   22335.58334491 -.01148918  00000-0 -54616-1 0  9996,2 53700  53.2174 204.5209 0001419  59.4936  37.2740 15.21530859  1308,6879.359,94.642,502.201,500.24800000000016,0.0
53700.0,STARLINK-4725,PAYLOAD,2022-12-01 22:00:00,15.20719614,0.0001323,53.2172,202.9978,72.5032,50.6102,-0.05612,-0.01152345,0.0,0 STARLINK-4725,1 53700U 22107A   22335.91667824 -.01152345  00000-0 -56120-1 0  9993,2 53700  53.2172 202.9978 0001323  72.5032  50.6102 15.20719614 13882,6881.806,94.692,504.581,502.76,0.0
53700.0,STARLINK-4725,PAYLOAD,2022-12-02 14:00:01,15.19115843,0.0001595999999999,53.2169,199.9521,53.7582,119.1059,-0.060533,-0.01183339,0.0,0 STARLINK-4725,1 53700U 22107A   22336.58334491 -.01183339  00000-0 -60533-1 0  9998,2 53700  53.2169 199.9521 0001596  53.7582 119.1059 15.19115843  1308,6886.648,94.792,509.61300000000006,507.414,0.0
53700.0,STARLINK-4725,PAYLOAD,2022-12-02 22:00:00,15.18298937,0.0001495,53.2172,198.4344,65.5638,130.7158,-0.061751,-0.01179138,0.0,0 STARLINK-4725,1 53700U 22107A   22336.91667824 -.01179138  00000-0 -61751-1 0  9999,2 53700  53.2172 198.4344 0001495  65.5638 130.7158 15.18298937  1304,6889.118,94.843,512.013,509.953,0.0
53700.0,STARLINK-4725,PAYLOAD,2022-12-03 14:00:01,15.16667668,0.0001541,53.2169,195.4,57.1728,183.0052,-0.064409,-0.01173751,0.0,0 STARLINK-4725,1 53700U 22107A   22337.58334491 -.01173751  00000-0 -64409-1 0  9992,2 53700  53.2169 195.4000 0001541  57.1728 183.0052 15.16667668  1308,6894.057,94.945,516.985,514.86,0.0
53700.0,STARLINK-4725,PAYLOAD,2022-12-03 22:00:00,15.15859214,0.0001453999999999,53.2172,193.8881,66.5847,194.0706,-0.066366,-0.01181041,0.0,0 STARLINK-4725,1 53700U 22107A   22337.91667824 -.01181041  00000-0 -66366-1 0  9993,2 53700  53.2172 193.8881 0001454  66.5847 194.0706 15.15859214  1307,6896.5080000000025,94.996,519.376,517.371,0.0
53700.0,STARLINK-4725,PAYLOAD,2022-12-04 06:00:00,15.15037499,0.0001413,53.2169,192.3759,61.2814,218.8823,-0.067359,-0.01171698,0.0,0 STARLINK-4725,1 53700U 22107A   22338.25001157 -.01171698  00000-0 -67359-1 0  9992,2 53700  53.2169 192.3759 0001413  61.2814 218.8823 15.15037499 14247,6899.002,95.047,521.842,519.8919999999998,0.0
53700.0,STARLINK-4725,PAYLOAD,2022-12-04 14:00:01,15.14225926,0.0001496,53.217,190.8649,55.1684,243.519,-0.068969,-0.01172305,0.0,0 STARLINK-4725,1 53700U 22107A   22338.58334491 -.01172305  00000-0 -68969-1 0  9992,2 53700  53.2170 190.8649 0001496  55.1684 243.5190 15.14225926  1306,6901.467,95.098,524.364,522.299,0.0
53700.0,STARLINK-4725,PAYLOAD,2022-12-04 22:00:00,15.13418253,0.0001398,53.2172,189.359,67.3701,248.8607,-0.071143,-0.01181144,0.0,0 STARLINK-4725,1 53700U 22107A   22338.91667824 -.01181144  00000-0 -71143-1 0  9997,2 53700  53.2172 189.3590 0001398  67.3701 248.8607 15.13418253  1309,6903.922,95.149,526.752,524.822,0.0
53700.0,STARLINK-4725,PAYLOAD,2022-12-05 14:00:01,15.11775434,0.0001411,53.217,186.3469,50.0377,298.4256,-0.0729799999999999,-0.01158849,0.0,0 STARLINK-4725,1 53700U 22107A   22339.58335648 -.01158849  00000-0 -72980-1 0  9993,2 53700  53.2170 186.3469 0001411  50.0377 298.4256 15.11775434 14448,6908.922,95.252,531.762,529.813,0.0
53700.0,STARLINK-4725,PAYLOAD,2022-12-05 22:00:01,15.10952345,0.0001579,53.2174,184.8466,45.9307,317.1509,-0.073919,-0.01148033,0.0,0 STARLINK-4725,1 53700U 22107A   22339.91668981 -.01148033  00000-0 -73919-1 0  9996,2 53700  53.2174 184.8466 0001579  45.9307 317.1509 15.10952345  1301,6911.431,95.304,534.388,532.205,0.0
53700.0,STARLINK-4725,PAYLOAD,2022-12-06 14:00:01,15.09214412,0.0001638,53.2172,181.8461,51.4843,337.9011,-0.0320709999999999,-0.00487173,0.0,0 STARLINK-4725,1 53700U 22107A   22340.58335648 -.00487173  00000-0 -32071-1 0  9996,2 53700  53.2172 181.8461 0001638  51.4843 337.9011 15.09214412  1306,6916.736,95.414,539.734,537.4680000000002,0.0
53700.0,STARLINK-4725,PAYLOAD,2022-12-06 16:00:00,15.090578699999998,0.0001773,53.2172,181.4722,47.4322,74.9058,-0.020766,-0.00318357,0.0,0 STARLINK-4725,1 53700U 22107A   22340.66667824 -.00318357  00000-0 -20766-1 0  9994,2 53700  53.2172 181.4722 0001773  47.4322  74.9058 15.09057870 14608,6917.215,95.424,540.306,537.8530000000002,0.0
53700.0,STARLINK-4725,PAYLOAD,2022-12-06 22:00:00,15.08880932,0.0001615,53.2155,180.3514,50.6401,350.4922,-0.0014457,-0.00023248,0.0,0 STARLINK-4725,1 53700U 22107A   22340.91667824 -.00023248  00000-0 -14457-2 0  9995,2 53700  53.2155 180.3514 0001615  50.6401 350.4922 15.08880932  1302,6917.755,95.435,540.737,538.503,0.0
53700.0,STARLINK-4725,PAYLOAD,2022-12-07 02:00:01,15.08860003,0.0001668,53.2152,179.60299999999995,50.8221,176.1287,0.00030938,4.642e-05,0.0,0 STARLINK-4725,1 53700U 22107A   22341.08334491  .00004642  00000-0  30938-3 0  9993,2 53700  53.2152 179.6030 0001668  50.8221 176.1287 15.08860003 14671,6917.819,95.436,540.8380000000002,538.53,0.0
53700.0,STARLINK-4725,PAYLOAD,2022-12-07 14:00:01,15.08836667,0.0001638,53.2155,177.3568,62.1934,2.1398,0.00047343,7.254e-05,0.0,0 STARLINK-4725,1 53700U 22107A   22341.58334491  .00007254  00000-0  47343-3 0  9998,2 53700  53.2155 177.3568 0001638  62.1934   2.1398 15.08836667 14747,6917.891,95.438,540.889,538.622,0.0
53700.0,STARLINK-4725,PAYLOAD,2022-12-08 00:00:00,15.08816787,0.0001764999999999,53.2153,175.488,53.5199,115.3131,0.0031455,0.00050097,0.0,0 STARLINK-4725,1 53700U 22107A   22342.00001157  .00050097  00000-0  31455-2 0  9995,2 53700  53.2153 175.4880 0001765  53.5199 115.3131 15.08816787  1300,6917.951,95.439,541.0369999999998,538.595,0.0
53700.0,STARLINK-4725,PAYLOAD,2022-12-08 14:00:01,15.08854568,0.000164,53.2154,172.8676,63.396,35.7244,-3.74e-06,-3.48e-06,0.0,0 STARLINK-4725,1 53700U 22107A   22342.58334491 -.00000348  00000-0 -37400-5 0  9993,2 53700  53.2154 172.8676 0001640  63.3960  35.7244 15.08854568  1301,6917.8359999999975,95.437,540.835,538.566,0.0
53700.0,STARLINK-4725,PAYLOAD,2022-12-08 22:00:01,15.08837497,0.0001747,53.2152,171.3728,55.9812,54.8186,0.0014067,0.00022169,0.0,0 STARLINK-4725,1 53700U 22107A   22342.91668981  .00022169  00000-0  14067-2 0  9998,2 53700  53.2152 171.3728 0001747  55.9812  54.8186 15.08837497  1301,6917.888000000001,95.438,540.962,538.544,0.0
53700.0,STARLINK-4725,PAYLOAD,2022-12-09 14:00:01,15.088387300000004,0.0001547,53.2152,168.3785,63.0705,70.8577,-0.00053303,-8.761e-05,0.0,0 STARLINK-4725,1 53700U 22107A   22343.58334491 -.00008761  00000-0 -53303-3 0  9999,2 53700  53.2152 168.3785 0001547  63.0705  70.8577 15.08838730  1302,6917.884,95.438,540.819,538.679,0.0
53700.0,STARLINK-4725,PAYLOAD,2022-12-10 14:00:01,15.08848757,0.0001585999999999,53.2152,163.8893,64.1356,104.5485,-0.00084994,-0.00013793,0.0,0 STARLINK-4725,1 53700U 22107A   22344.58334491 -.00013793  00000-0 -84994-3 0  9991,2 53700  53.2152 163.8893 0001586  64.1356 104.5485 15.08848757  1302,6917.854,95.437,540.816,538.621,0.0
53700.0,STARLINK-4725,PAYLOAD,2022-12-10 16:00:00,15.08851525,0.0001594,53.2155,163.516,61.5725,200.0111,-0.0015902,-0.00025515,0.0,0 STARLINK-4725,1 53700U 22107A   22344.66667824 -.00025515  00000-0 -15902-2 0  9996,2 53700  53.2155 163.5160 0001594  61.5725 200.0111 15.08851525 15219,6917.845,95.437,540.813,538.607,0.0
53700.0,STARLINK-4725,PAYLOAD,2022-12-11 00:00:00,15.08827319,0.0001684,53.2145,162.0204,55.1735,218.0065,0.0015901,0.000251,0.0,0 STARLINK-4725,1 53700U 22107A   22345.00001157  .00025100  00000-0  15901-2 0  9993,2 53700  53.2145 162.0204 0001684  55.1735 218.0065 15.08827319  1307,6917.919,95.438,540.9490000000002,538.619,0.0
53700.0,STARLINK-4725,PAYLOAD,2022-12-11 14:00:01,15.08859024,0.0001643,53.2153,159.4004,63.7726,139.6965,-0.00095844,-0.00015517,0.0,0 STARLINK-4725,1 53700U 22107A   22345.58334491 -.00015517  00000-0 -95844-3 0  9994,2 53700  53.2153 159.4004 0001643  63.7726 139.6965 15.08859024 15348,6917.821999999999,95.436,540.8240000000002,538.5509999999998,0.0
53700.0,STARLINK-4725,PAYLOAD,2022-12-11 22:00:01,15.08838419,0.000172,53.2152,157.9055,54.6119,160.5348,-5.7908e-05,-1.21e-05,0.0,0 STARLINK-4725,1 53700U 22107A   22345.91668981 -.00001210  00000-0 -57908-4 0  9990,2 53700  53.2152 157.9055 0001720  54.6119 160.5348 15.08838419  1301,6917.885,95.438,540.94,538.56,0.0
53700.0,STARLINK-4725,PAYLOAD,2022-12-12 14:00:01,15.08844748,0.0001611,53.2157,154.9113,60.4685,177.785,-0.0011244,-0.00018141,0.0,0 STARLINK-4725,1 53700U 22107A   22346.58334491 -.00018141  00000-0 -11244-2 0  9992,2 53700  53.2157 154.9113 0001611  60.4685 177.7850 15.08844748  1300,6917.866,95.437,540.845,538.616,0.0
